NORAD_CAT_ID,OBJECT_NAME,OBJECT_TYPE,EPOCH,MEAN_MOTION,ECCENTRICITY,INCLINATION,RA_OF_ASC_NODE,ARG_OF_PERICENTER,MEAN_ANOMALY,BSTAR,MEAN_MOTION_DOT,MEAN_MOTION_DDOT,TLE_LINE0,TLE_LINE1,TLE_LINE2,SEMIMAJOR_AXIS,PERIOD,APOGEE,PERIGEE,DECAYED
56781.0,STARLINK-5989,PAYLOAD,2023-10-05 04:00:00,15.13646421,0.0003143,70.0009,60.007,271.8991,307.1492,-0.054047,-0.00902716,0.0,0 STARLINK-5989,1 56781U 23078Q   23278.16667824 -.00902716  00000-0 -54047-1 0  9997,2 56781  70.0009  60.0070 0003143 271.8991 307.1492 15.13646421 20142,6903.228,95.135,527.263,522.923,0.0
56781.0,STARLINK-5989,PAYLOAD,2023-10-05 14:00:01,15.12861569,0.0003331,70.0011,58.9319,272.1116,56.1458,-0.058083,-0.00945546,0.0,0 STARLINK-5989,1 56781U 23078Q   23278.58334491 -.00945546  00000-0 -58083-1 0  9996,2 56781  70.0011  58.9319 0003331 272.1116  56.1458 15.12861569  5944,6905.615,95.184,529.781,525.18,0.0
56781.0,STARLINK-5989,PAYLOAD,2023-10-05 20:00:01,15.1233896,0.000323,70.0009,58.2876,275.9841,333.2291,-0.055096,-0.0088818,0.0,0 STARLINK-5989,1 56781U 23078Q   23278.83334491 -.00888180  00000-0 -55096-1 0  9995,2 56781  70.0009  58.2876 0003230 275.9841 333.2291 15.12338960 20244,6907.206,95.217,531.302,526.84,0.0
56781.0,STARLINK-5989,PAYLOAD,2023-10-05 22:00:00,15.12196786,0.0003348,70.0006,58.0732,276.4898,66.2664,-0.057725,-0.0092407,0.0,0 STARLINK-5989,1 56781U 23078Q   23278.91667824 -.00924070  00000-0 -57725-1 0  9993,2 56781  70.0006  58.0732 0003348 276.4898  66.2664 15.12196786  5998,6907.639,95.226,531.817,527.191,0.0
56781.0,STARLINK-5989,PAYLOAD,2023-10-06 04:00:00,15.11683184,0.0003163,70.0009,57.4306,270.5131,352.609,-0.056263,-0.00890358,0.0,0 STARLINK-5989,1 56781U 23078Q   23279.16667824 -.00890358  00000-0 -56263-1 0  9998,2 56781  70.0009  57.4306 0003163 270.5131 352.6090 15.11683184 20298,6909.204,95.258,533.254,528.883,0.0
56781.0,STARLINK-5989,PAYLOAD,2023-10-06 14:00:01,15.10900463,0.0003289,70.0009,56.3606,269.9702,99.4917,-0.060593,-0.00934712,0.0,0 STARLINK-5989,1 56781U 23078Q   23279.58335648 -.00934712  00000-0 -60593-1 0  9994,2 56781  70.0009  56.3606 0003289 269.9702  99.4917 15.10900463  6103,6911.59,95.307,535.728,531.181,0.0
56781.0,STARLINK-5989,PAYLOAD,2023-10-06 20:00:01,15.10383654,0.0003331,70.0008,55.7144,276.1019,12.4899,-0.058306,-0.00890029,0.0,0 STARLINK-5989,1 56781U 23078Q   23279.83334491 -.00890029  00000-0 -58306-1 0  9998,2 56781  70.0008  55.7144 0003331 276.1019  12.4899 15.10383654 20399,6913.166,95.34,537.334,532.728,0.0
56781.0,STARLINK-5989,PAYLOAD,2023-10-06 22:00:01,15.10241986,0.0003375,70.0006,55.5003,277.802,103.8092,-0.061187,-0.00927399,0.0,0 STARLINK-5989,1 56781U 23078Q   23279.91668981 -.00927399  00000-0 -61187-1 0  9993,2 56781  70.0006  55.5003 0003375 277.8020 103.8092 15.10241986  6000,6913.598,95.349,537.797,533.13,0.0
56781.0,STARLINK-5989,PAYLOAD,2023-10-07 12:00:00,15.09117029,0.0003312,70.001,54.0035,270.9275,39.9916,-0.064695,-0.00948849,0.0,0 STARLINK-5989,1 56781U 23078Q   23280.50001157 -.00948849  00000-0 -64695-1 0  9996,2 56781  70.0010  54.0035 0003312 270.9275  39.9916 15.09117029 20492,6917.034,95.42,541.19,536.608,0.0
56781.0,STARLINK-5989,PAYLOAD,2023-10-07 14:00:01,15.08945325,0.0003337,70.0009,53.7899,274.295,129.2035,-0.064598,-0.00943409,0.0,0 STARLINK-5989,1 56781U 23078Q   23280.58334491 -.00943409  00000-0 -64598-1 0  9993,2 56781  70.0009  53.7899 0003337 274.2950 129.2035 15.08945325  5909,6917.558,95.431,541.732,537.115,0.0
56781.0,STARLINK-5989,PAYLOAD,2023-10-07 22:00:00,15.08287464,0.0003341,70.0005,52.9359,278.5589,134.7407,-0.064883,-0.0093157,0.0,0 STARLINK-5989,1 56781U 23078Q   23280.91667824 -.00931570  00000-0 -64883-1 0  9992,2 56781  70.0005  52.9359 0003341 278.5589 134.7407 15.08287464  5959,6919.57,95.473,543.747,539.123,0.0
56781.0,STARLINK-5989,PAYLOAD,2023-10-08 12:00:00,15.07160298,0.0003322,70.001,51.4436,272.1229,66.4418,-0.068381,-0.00950486,0.0,0 STARLINK-5989,1 56781U 23078Q   23281.50001157 -.00950486  00000-0 -68381-1 0  9993,2 56781  70.0010  51.4436 0003322 272.1229  66.4418 15.07160298 20645,6923.019,95.544,547.184,542.585,0.0
56781.0,STARLINK-5989,PAYLOAD,2023-10-08 14:00:01,15.0698483,0.0003288,70.0009,51.2306,275.336,155.2224,-0.06776,-0.00938342,0.0,0 STARLINK-5989,1 56781U 23078Q   23281.58334491 -.00938342  00000-0 -67760-1 0  9998,2 56781  70.0009  51.2306 0003288 275.3360 155.2224 15.06984830  5874,6923.557,95.555,547.698,543.145,0.0
56781.0,STARLINK-5989,PAYLOAD,2023-10-08 22:00:00,15.0633331,0.000329,70.0006,50.3792,279.3397,158.6707,-0.068846,-0.00936789,0.0,0 STARLINK-5989,1 56781U 23078Q   23281.91667824 -.00936789  00000-0 -68846-1 0  9993,2 56781  70.0006  50.3792 0003290 279.3397 158.6707 15.06333310  5938,6925.553,95.596,549.696,545.139,0.0
56781.0,STARLINK-5989,PAYLOAD,2023-10-09 04:00:00,15.05803564,0.0003276,70.0009,49.7412,272.2965,80.8047,-0.064819,-0.00874138,0.0,0 STARLINK-5989,1 56781U 23078Q   23282.16667824 -.00874138  00000-0 -64819-1 0  9996,2 56781  70.0009  49.7412 0003276 272.2965  80.8047 15.05803564 20740,6927.177,95.63,551.311,546.773,0.0
56781.0,STARLINK-5989,PAYLOAD,2023-10-09 14:00:01,15.05022638,0.0003231,70.001,48.6792,276.295,174.2829,-0.0708,-0.00930367,0.0,0 STARLINK-5989,1 56781U 23078Q   23282.58334491 -.00930367  00000-0 -70800-1 0  9997,2 56781  70.0010  48.6792 0003231 276.2950 174.2829 15.05022638  5924,6929.573,95.68,553.677,549.199,0.0
56781.0,STARLINK-5989,PAYLOAD,2023-10-09 20:00:01,15.04523112,0.0003372,70.0009,48.0423,278.4559,86.0274,-0.069595,-0.00904385,0.0,0 STARLINK-5989,1 56781U 23078Q   23282.83334491 -.00904385  00000-0 -69595-1 0  9995,2 56781  70.0009  48.0423 0003372 278.4559  86.0274 15.04523112 20846,6931.107,95.711,555.309,550.635,0.0
56781.0,STARLINK-5989,PAYLOAD,2023-10-09 22:00:00,15.04380265,0.0003217,70.0008,47.8303,279.7088,175.9725,-0.073139,-0.0094357,0.0,0 STARLINK-5989,1 56781U 23078Q   23282.91667824 -.00943570  00000-0 -73139-1 0  9991,2 56781  70.0008  47.8303 0003217 279.7088 175.9725 15.04380265  5974,6931.546,95.72,555.641,551.181,0.0
56781.0,STARLINK-5989,PAYLOAD,2023-10-10 14:00:01,15.03063991,0.0003245,70.0013,46.1355,277.5132,186.0423,-0.074299,-0.00926734,0.0,0 STARLINK-5989,1 56781U 23078Q   23283.58334491 -.00926734  00000-0 -74299-1 0  9997,2 56781  70.0013  46.1355 0003245 277.5132 186.0423 15.03063991 20952,6935.592,95.804,559.707,555.206,0.0
56781.0,STARLINK-5989,PAYLOAD,2023-10-10 22:00:01,15.02426494,0.0003201,70.0011,45.2891,280.8121,185.5602,-0.077555,-0.0096022,0.0,0 STARLINK-5989,1 56781U 23078Q   23283.91668981 -.00960220  00000-0 -77555-1 0  9994,2 56781  70.0011  45.2891 0003201 280.8121 185.5602 15.02426494  5947,6937.554,95.845,561.639,557.198,0.0
56781.0,STARLINK-5989,PAYLOAD,2023-10-11 14:00:01,15.01103347,0.0003238,70.0016,43.5996,278.9048,190.5885,-0.07773,-0.00920869,0.0,0 STARLINK-5989,1 56781U 23078Q   23284.58334491 -.00920869  00000-0 -77730-1 0  9994,2 56781  70.0016  43.5996 0003238 278.9048 190.5885 15.01103347  5975,6941.63,95.929,565.742,561.247,0.0
56781.0,STARLINK-5989,PAYLOAD,2023-10-11 22:00:00,15.00472554,0.00032,70.0014,42.7559,281.7485,188.1502,-0.082192,-0.00966021,0.0,0 STARLINK-5989,1 56781U 23078Q   23284.91667824 -.00966021  00000-0 -82192-1 0  9998,2 56781  70.0014  42.7559 0003200 281.7485 188.1502 15.00472554 21150,6943.575,95.97,567.662,563.218,0.0
56781.0,STARLINK-5989,PAYLOAD,2023-10-12 06:00:00,14.99630216,0.0003176,70.0016,41.9132,274.558,195.0083,-0.037465,-0.00434951,0.0,0 STARLINK-5989,1 56781U 23078Q   23285.25001157 -.00434951  00000-0 -37465-1 0  9992,2 56781  70.0016  41.9132 0003176 274.5580 195.0083 14.99630216 21203,6946.175,96.024,570.246,565.834,0.0
56781.0,STARLINK-5989,PAYLOAD,2023-10-12 14:00:01,14.99424264,0.0003233,70.0018,41.0713,280.833,187.5595,-0.034324,-0.00398401,0.0,0 STARLINK-5989,1 56781U 23078Q   23285.58334491 -.00398401  00000-0 -34324-1 0  9998,2 56781  70.0018  41.0713 0003233 280.8330 187.5595 14.99424264 21251,6946.811,96.037,570.922,566.43,0.0
56781.0,STARLINK-5989,PAYLOAD,2023-10-12 22:00:01,14.99169869,0.0003239,70.0016,40.2295,282.9032,184.1936,-0.081694,-0.00930398,0.0,0 STARLINK-5989,1 56781U 23078Q   23285.91668981 -.00930398  00000-0 -81694-1 0  9998,2 56781  70.0016  40.2295 0003239 282.9032 184.1936 14.99169869 21308,6947.597,96.053,571.712,567.212,0.0
56781.0,STARLINK-5989,PAYLOAD,2023-10-13 06:00:02,14.98352733,0.0003011,70.0019,39.3884,275.3716,189.8347,-0.0022434,-0.00026775,0.0,0 STARLINK-5989,1 56781U 23078Q   23286.25002315 -.00026775  00000-0 -22434-2 0  9992,2 56781  70.0019  39.3884 0003011 275.3716 189.8347 14.98352733 21353,6950.123,96.106,574.08,569.895,0.0
56781.0,STARLINK-5989,PAYLOAD,2023-10-13 14:00:01,14.98327983,0.0003105,70.0021,38.548,280.4927,182.1548,-0.00041013,-4.983e-05,0.0,0 STARLINK-5989,1 56781U 23078Q   23286.58334491 -.00004983  00000-0 -41013-3 0  9993,2 56781  70.0021  38.5480 0003105 280.4927 182.1548 14.98327983  5860,6950.199,96.107,574.222,569.906,0.0
56781.0,STARLINK-5989,PAYLOAD,2023-10-13 22:00:00,14.98333754,0.0003065,70.0019,37.7076,279.4723,180.6561,-0.0019285,-0.0002303,0.0,0 STARLINK-5989,1 56781U 23078Q   23286.91667824 -.00023030  00000-0 -19285-2 0  9998,2 56781  70.0019  37.7076 0003065 279.4723 180.6561 14.98333754  5913,6950.181,96.107,574.177,569.916,0.0
56781.0,STARLINK-5989,PAYLOAD,2023-10-14 04:00:00,14.98288735,0.0003067,70.0021,37.0773,273.241,95.0074,0.0083311,0.00100646,0.0,0 STARLINK-5989,1 56781U 23078Q   23287.16667824  .00100646  00000-0  83311-2 0  9994,2 56781  70.0021  37.0773 0003067 273.2410  95.0074 14.98288735 21497,6950.321,96.11,574.317,570.054,0.0
56781.0,STARLINK-5989,PAYLOAD,2023-10-14 14:00:01,14.98369542,0.0003141,70.0024,36.0269,275.8233,179.3304,-0.0067057,-0.00079288,0.0,0 STARLINK-5989,1 56781U 23078Q   23287.58335648 -.00079288  00000-0 -67057-2 0  9994,2 56781  70.0024  36.0269 0003141 275.8233 179.3304 14.98369542 21558,6950.071,96.104,574.119,569.753,0.0
